IRIDIUM 155             
1 43573U 18061E   23197.14113817  .00000003  00000+0 -61494-5 0  9998
2 43573  86.3998 142.6666 0001919  84.8170 275.3244 14.34217425260420
IRIDIUM 154             
1 43574U 18061F   23197.12210754  .00000303  00000+0  10106-3 0  9999
2 43574  86.4001 142.7561 0002498  79.5630 280.5848 14.34217724260461
IRIDIUM 163             
1 43575U 18061G   23196.61470277  .00000309  00000+0  10335-3 0  9991
2 43575  86.3998 142.9165 0002419  85.0716 275.0756 14.34219106260360
IRIDIUM 156             
1 43576U 18061H   23197.14748764  .00000143  00000+0  43848-4 0  9992
2 43576  86.3998 142.6998 0002217  92.0209 268.1241 14.34218340260421
IRIDIUM 164             
1 43577U 18061J   23197.33776270  .00000270  00000+0  89422-4 0  9996
2 43577  86.4000 142.6443 0002550  87.3887 272.7600 14.34218485260500
IRIDIUM 159             
1 43578U 18061K   23197.30604603  .00000283  00000+0  93975-4 0  9996
2 43578  86.3998 142.6170 0002327  83.1604 276.9857 14.34217914260467
IRIDIUM 180             
1 43922U 19002A   23197.16600475  .00000308  00000+0  10296-3 0  9994
2 43922  86.3950  79.5499 0002365  83.9144 276.2321 14.34218154236097
IRIDIUM 176             
1 43923U 19002B   23197.40577086  .00000864  00000+0  13307-3 0  9996
2 43923  86.6082  79.4872 0002495  89.5905 270.5598 14.72247001242299
IRIDIUM 168             
1 43924U 19002C   23197.15966148  .00000294  00000+0  97973-4 0  9999
2 43924  86.3952  79.5997 0002293  82.7596 277.3860 14.34218703236036
IRIDIUM 173             
1 43925U 19002D   23197.14697936  .00000303  00000+0  10128-3 0  9992
2 43925  86.3949  79.5377 0002278  81.3834 278.7620 14.34217655236021
IRIDIUM 169             
1 43926U 19002E   23196.29286639  .00000414  00000+0  12899-3 0  9992
2 43926  86.4233 111.5193 0000837 343.8571  16.2601 14.38598473236696
IRIDIUM 172             
1 43927U 19002F   23197.41970554  .00000296  00000+0  98508-4 0  9994
2 43927  86.3949  79.4283 0002192  82.8326 277.3119 14.34220836236062
IRIDIUM 175             
1 43928U 19002G   23197.39948377  .00000160  00000+0  21348-4 0  9998
2 43928  86.1492  71.6584 0002445  85.7943 274.3553 14.72237886242285
IRIDIUM 171             
1 43929U 19002H   23197.12161471  .00000293  00000+0  97519-4 0  9992
2 43929  86.3959  79.7410 0002318  83.3928 276.7532 14.34219549236010
IRIDIUM 170             
1 43930U 19002J   23196.32444297  .00001444  00000+0  22505-3 0  9996
2 43930  86.6082  79.9445 0002591  90.2963 269.8551 14.72246995242143
IRIDIUM 167             
1 43931U 19002K   23197.11526449  .00000288  00000+0  95834-4 0  9996
2 43931  86.3950  79.5686 0002340  84.5076 275.6387 14.34218398236016
IRIDIUM 181             
1 56726U 23068S   23197.36794322  .00000349  00000+0  97151-4 0  9995
2 56726  86.8642 116.8823 0003265 115.0171 245.1370 14.43603680  8547
IRIDIUM 177             
1 56727U 23068T   23197.02828792  .00001649  00000+0  21344-3 0  9992
2 56727  86.1988 115.4459 0003278  87.8359 272.3237 14.80235296  8507
IRIDIUM 174             
1 56728U 23068U   23196.75249021  .00001708  00000+0  22125-3 0  9998
2 56728  86.1996 115.6532 0002861  88.1958 271.9590 14.80236490  8466
IRIDIUM 178             
1 56729U 23068V   23197.28788667  .00000116  00000+0  11837-4 0  9993
2 56729  86.6766 116.7728 0002946  90.0317 270.1242 14.80235126  8540
IRIDIUM 179             
1 56730U 23068W   23197.28248543  .00000701  00000+0  88753-4 0  9990
2 56730  86.6806 116.7980 0002991  90.5030 269.6535 14.80228394  8541
